KUIPER-00095            
1 65134U 25171C   26028.91668981 -.01616058  00000+0 -18227+0 0  9998
2 65134  51.8969 321.4867 0004657 341.5990 243.2987 14.89727328  3877
KUIPER-00096            
1 65135U 25171D   26028.15947251  .00008962  00000+0  12032-2 0  9992
2 65135  51.9023 337.3101 0002073  80.9292 279.1905 14.79929885 26892
KUIPER-00097            
1 65136U 25171E   26028.15614212  .00009705  00000+0  12942-2 0  9997
2 65136  51.9037 339.9387 0002934  54.1871 305.9363 14.80132469 26841
KUIPER-00098            
1 65137U 25171F   26028.82833051  .00009292  00000+0  12394-2 0  9998
2 65137  51.9034 339.3447 0007070  14.1476 345.9683 14.80156200 26267
KUIPER-00099            
1 65138U 25171G   26028.80634341 -.00000634  00000+0 -54122-4 0  9998
2 65138  51.9053 329.4262 0001276  91.0960 269.0149 14.79947143 27051
KUIPER-00100            
1 65139U 25171H   26028.97785228  .00008700  00000+0  11683-2 0  9991
2 65139  51.9047 326.1542 0000607  72.8014 287.3015 14.79951494 27110
KUIPER-00102            
1 65140U 25171J   26028.97529175  .00006402  00000+0  86626-3 0  9997
2 65140  51.9006 328.7037 0000851  90.0064 270.0996 14.80019016 27071
KUIPER-00103            
1 65141U 25171K   26028.18020592  .00008719  00000+0  11743-2 0  9990
2 65141  51.9015 349.7128 0002522  26.8628 333.2465 14.79821995 26714
