<?xml version="1.0" encoding="UTF-8"?>
<ndm xmlns:xsi="http://www.w3.org/2001/XMLSchema-instance" xsi:noNamespaceSchemaLocation="https://sanaregistry.org/r/ndmxml_unqualified/ndmxml-2.0.0-master-2.0.xsd">
<omm id="CCSDS_OMM_VERS" version="2.0">
<header><CREATION_DATE/><ORIGINATOR/></header><body><segment><metadata><OBJECT_NAME>KUIPER-00095</OBJECT_NAME><OBJECT_ID>2025-171C</OBJECT_ID><CENTER_NAME>EARTH</CENTER_NAME><REF_FRAME>TEME</REF_FRAME><TIME_SYSTEM>UTC</TIME_SYSTEM><MEAN_ELEMENT_THEORY>SGP4</MEAN_ELEMENT_THEORY></metadata><data><meanElements><EPOCH>2026-01-28T22:00:01.999584</EPOCH><MEAN_MOTION>14.89727328</MEAN_MOTION><ECCENTRICITY>.00046574</ECCENTRICITY><INCLINATION>51.8969</INCLINATION><RA_OF_ASC_NODE>321.4867</RA_OF_ASC_NODE><ARG_OF_PERICENTER>341.5990</ARG_OF_PERICENTER><MEAN_ANOMALY>243.2987</MEAN_ANOMALY></meanElements><tleParameters><EPHEMERIS_TYPE>0</EPHEMERIS_TYPE><CLASSIFICATION_TYPE>U</CLASSIFICATION_TYPE><NORAD_CAT_ID>65134</NORAD_CAT_ID><ELEMENT_SET_NO>999</ELEMENT_SET_NO><REV_AT_EPOCH>387</REV_AT_EPOCH><BSTAR>-.18227476E+0</BSTAR><MEAN_MOTION_DOT>-.1616058E-1</MEAN_MOTION_DOT><MEAN_MOTION_DDOT>0</MEAN_MOTION_DDOT></tleParameters></data></segment></body></omm>
<omm id="CCSDS_OMM_VERS" version="2.0">
<header><CREATION_DATE/><ORIGINATOR/></header><body><segment><metadata><OBJECT_NAME>KUIPER-00096</OBJECT_NAME><OBJECT_ID>2025-171D</OBJECT_ID><CENTER_NAME>EARTH</CENTER_NAME><REF_FRAME>TEME</REF_FRAME><TIME_SYSTEM>UTC</TIME_SYSTEM><MEAN_ELEMENT_THEORY>SGP4</MEAN_ELEMENT_THEORY></metadata><data><meanElements><EPOCH>2026-01-28T03:49:38.424864</EPOCH><MEAN_MOTION>14.79929885</MEAN_MOTION><ECCENTRICITY>.00020737</ECCENTRICITY><INCLINATION>51.9023</INCLINATION><RA_OF_ASC_NODE>337.3101</RA_OF_ASC_NODE><ARG_OF_PERICENTER>80.9292</ARG_OF_PERICENTER><MEAN_ANOMALY>279.1905</MEAN_ANOMALY></meanElements><tleParameters><EPHEMERIS_TYPE>0</EPHEMERIS_TYPE><CLASSIFICATION_TYPE>U</CLASSIFICATION_TYPE><NORAD_CAT_ID>65135</NORAD_CAT_ID><ELEMENT_SET_NO>999</ELEMENT_SET_NO><REV_AT_EPOCH>2689</REV_AT_EPOCH><BSTAR>.12031556E-2</BSTAR><MEAN_MOTION_DOT>.8962E-4</MEAN_MOTION_DOT><MEAN_MOTION_DDOT>0</MEAN_MOTION_DDOT></tleParameters></data></segment></body></omm>
<omm id="CCSDS_OMM_VERS" version="2.0">
<header><CREATION_DATE/><ORIGINATOR/></header><body><segment><metadata><OBJECT_NAME>KUIPER-00097</OBJECT_NAME><OBJECT_ID>2025-171E</OBJECT_ID><CENTER_NAME>EARTH</CENTER_NAME><REF_FRAME>TEME</REF_FRAME><TIME_SYSTEM>UTC</TIME_SYSTEM><MEAN_ELEMENT_THEORY>SGP4</MEAN_ELEMENT_THEORY></metadata><data><meanElements><EPOCH>2026-01-28T03:44:50.679168</EPOCH><MEAN_MOTION>14.80132469</MEAN_MOTION><ECCENTRICITY>.00029343</ECCENTRICITY><INCLINATION>51.9037</INCLINATION><RA_OF_ASC_NODE>339.9387</RA_OF_ASC_NODE><ARG_OF_PERICENTER>54.1871</ARG_OF_PERICENTER><MEAN_ANOMALY>305.9363</MEAN_ANOMALY></meanElements><tleParameters><EPHEMERIS_TYPE>0</EPHEMERIS_TYPE><CLASSIFICATION_TYPE>U</CLASSIFICATION_TYPE><NORAD_CAT_ID>65136</NORAD_CAT_ID><ELEMENT_SET_NO>999</ELEMENT_SET_NO><REV_AT_EPOCH>2684</REV_AT_EPOCH><BSTAR>.12941615E-2</BSTAR><MEAN_MOTION_DOT>.9705E-4</MEAN_MOTION_DOT><MEAN_MOTION_DDOT>0</MEAN_MOTION_DDOT></tleParameters></data></segment></body></omm>
<omm id="CCSDS_OMM_VERS" version="2.0">
<header><CREATION_DATE/><ORIGINATOR/></header><body><segment><metadata><OBJECT_NAME>KUIPER-00098</OBJECT_NAME><OBJECT_ID>2025-171F</OBJECT_ID><CENTER_NAME>EARTH</CENTER_NAME><REF_FRAME>TEME</REF_FRAME><TIME_SYSTEM>UTC</TIME_SYSTEM><MEAN_ELEMENT_THEORY>SGP4</MEAN_ELEMENT_THEORY></metadata><data><meanElements><EPOCH>2026-01-28T19:52:47.756064</EPOCH><MEAN_MOTION>14.80156200</MEAN_MOTION><ECCENTRICITY>.00070709</ECCENTRICITY><INCLINATION>51.9034</INCLINATION><RA_OF_ASC_NODE>339.3447</RA_OF_ASC_NODE><ARG_OF_PERICENTER>14.1476</ARG_OF_PERICENTER><MEAN_ANOMALY>345.9683</MEAN_ANOMALY></meanElements><tleParameters><EPHEMERIS_TYPE>0</EPHEMERIS_TYPE><CLASSIFICATION_TYPE>U</CLASSIFICATION_TYPE><NORAD_CAT_ID>65137</NORAD_CAT_ID><ELEMENT_SET_NO>999</ELEMENT_SET_NO><REV_AT_EPOCH>2626</REV_AT_EPOCH><BSTAR>.12394018E-2</BSTAR><MEAN_MOTION_DOT>.9292E-4</MEAN_MOTION_DOT><MEAN_MOTION_DDOT>0</MEAN_MOTION_DDOT></tleParameters></data></segment></body></omm>
<omm id="CCSDS_OMM_VERS" version="2.0">
<header><CREATION_DATE/><ORIGINATOR/></header><body><segment><metadata><OBJECT_NAME>KUIPER-00099</OBJECT_NAME><OBJECT_ID>2025-171G</OBJECT_ID><CENTER_NAME>EARTH</CENTER_NAME><REF_FRAME>TEME</REF_FRAME><TIME_SYSTEM>UTC</TIME_SYSTEM><MEAN_ELEMENT_THEORY>SGP4</MEAN_ELEMENT_THEORY></metadata><data><meanElements><EPOCH>2026-01-28T19:21:08.070624</EPOCH><MEAN_MOTION>14.79947143</MEAN_MOTION><ECCENTRICITY>.00012767</ECCENTRICITY><INCLINATION>51.9053</INCLINATION><RA_OF_ASC_NODE>329.4262</RA_OF_ASC_NODE><ARG_OF_PERICENTER>91.0960</ARG_OF_PERICENTER><MEAN_ANOMALY>269.0149</MEAN_ANOMALY></meanElements><tleParameters><EPHEMERIS_TYPE>0</EPHEMERIS_TYPE><CLASSIFICATION_TYPE>U</CLASSIFICATION_TYPE><NORAD_CAT_ID>65138</NORAD_CAT_ID><ELEMENT_SET_NO>999</ELEMENT_SET_NO><REV_AT_EPOCH>2705</REV_AT_EPOCH><BSTAR>-.54122007E-4</BSTAR><MEAN_MOTION_DOT>-.634E-5</MEAN_MOTION_DOT><MEAN_MOTION_DDOT>0</MEAN_MOTION_DDOT></tleParameters></data></segment></body></omm>
<omm id="CCSDS_OMM_VERS" version="2.0">
<header><CREATION_DATE/><ORIGINATOR/></header><body><segment><metadata><OBJECT_NAME>KUIPER-00100</OBJECT_NAME><OBJECT_ID>2025-171H</OBJECT_ID><CENTER_NAME>EARTH</CENTER_NAME><REF_FRAME>TEME</REF_FRAME><TIME_SYSTEM>UTC</TIME_SYSTEM><MEAN_ELEMENT_THEORY>SGP4</MEAN_ELEMENT_THEORY></metadata><data><meanElements><EPOCH>2026-01-28T23:28:06.436992</EPOCH><MEAN_MOTION>14.79951494</MEAN_MOTION><ECCENTRICITY>.00006079</ECCENTRICITY><INCLINATION>51.9047</INCLINATION><RA_OF_ASC_NODE>326.1542</RA_OF_ASC_NODE><ARG_OF_PERICENTER>72.8014</ARG_OF_PERICENTER><MEAN_ANOMALY>287.3015</MEAN_ANOMALY></meanElements><tleParameters><EPHEMERIS_TYPE>0</EPHEMERIS_TYPE><CLASSIFICATION_TYPE>U</CLASSIFICATION_TYPE><NORAD_CAT_ID>65139</NORAD_CAT_ID><ELEMENT_SET_NO>999</ELEMENT_SET_NO><REV_AT_EPOCH>2711</REV_AT_EPOCH><BSTAR>.11682768E-2</BSTAR><MEAN_MOTION_DOT>.87E-4</MEAN_MOTION_DOT><MEAN_MOTION_DDOT>0</MEAN_MOTION_DDOT></tleParameters></data></segment></body></omm>
<omm id="CCSDS_OMM_VERS" version="2.0">
<header><CREATION_DATE/><ORIGINATOR/></header><body><segment><metadata><OBJECT_NAME>KUIPER-00102</OBJECT_NAME><OBJECT_ID>2025-171J</OBJECT_ID><CENTER_NAME>EARTH</CENTER_NAME><REF_FRAME>TEME</REF_FRAME><TIME_SYSTEM>UTC</TIME_SYSTEM><MEAN_ELEMENT_THEORY>SGP4</MEAN_ELEMENT_THEORY></metadata><data><meanElements><EPOCH>2026-01-28T23:24:25.207200</EPOCH><MEAN_MOTION>14.80019016</MEAN_MOTION><ECCENTRICITY>.00008519</ECCENTRICITY><INCLINATION>51.9006</INCLINATION><RA_OF_ASC_NODE>328.7037</RA_OF_ASC_NODE><ARG_OF_PERICENTER>90.0064</ARG_OF_PERICENTER><MEAN_ANOMALY>270.0996</MEAN_ANOMALY></meanElements><tleParameters><EPHEMERIS_TYPE>0</EPHEMERIS_TYPE><CLASSIFICATION_TYPE>U</CLASSIFICATION_TYPE><NORAD_CAT_ID>65140</NORAD_CAT_ID><ELEMENT_SET_NO>999</ELEMENT_SET_NO><REV_AT_EPOCH>2707</REV_AT_EPOCH><BSTAR>.86626167E-3</BSTAR><MEAN_MOTION_DOT>.6402E-4</MEAN_MOTION_DOT><MEAN_MOTION_DDOT>0</MEAN_MOTION_DDOT></tleParameters></data></segment></body></omm>
<omm id="CCSDS_OMM_VERS" version="2.0">
<header><CREATION_DATE/><ORIGINATOR/></header><body><segment><metadata><OBJECT_NAME>KUIPER-00103</OBJECT_NAME><OBJECT_ID>2025-171K</OBJECT_ID><CENTER_NAME>EARTH</CENTER_NAME><REF_FRAME>TEME</REF_FRAME><TIME_SYSTEM>UTC</TIME_SYSTEM><MEAN_ELEMENT_THEORY>SGP4</MEAN_ELEMENT_THEORY></metadata><data><meanElements><EPOCH>2026-01-28T04:19:29.791488</EPOCH><MEAN_MOTION>14.79821995</MEAN_MOTION><ECCENTRICITY>.00025227</ECCENTRICITY><INCLINATION>51.9015</INCLINATION><RA_OF_ASC_NODE>349.7128</RA_OF_ASC_NODE><ARG_OF_PERICENTER>26.8628</ARG_OF_PERICENTER><MEAN_ANOMALY>333.2465</MEAN_ANOMALY></meanElements><tleParameters><EPHEMERIS_TYPE>0</EPHEMERIS_TYPE><CLASSIFICATION_TYPE>U</CLASSIFICATION_TYPE><NORAD_CAT_ID>65141</NORAD_CAT_ID><ELEMENT_SET_NO>999</ELEMENT_SET_NO><REV_AT_EPOCH>2671</REV_AT_EPOCH><BSTAR>.11742975E-2</BSTAR><MEAN_MOTION_DOT>.8719E-4</MEAN_MOTION_DOT><MEAN_MOTION_DDOT>0</MEAN_MOTION_DDOT></tleParameters></data></segment></body></omm>

</ndm>
